[{"OBJECT_NAME":"BANDWAGON-2 OBJECT D","OBJECT_ID":"2024-247D","EPOCH":"2026-03-09T12:32:33.670752","MEAN_MOTION":15.29076102,"ECCENTRICITY":0.00034883,"INCLINATION":44.9954,"RA_OF_ASC_NODE":115.671,"ARG_OF_PERICENTER":351.1453,"MEAN_ANOMALY":8.9368,"EPHEMERIS_TYPE":0,"CLASSIFICATION_TYPE":"U","NORAD_CAT_ID":62380,"ELEMENT_SET_NO":999,"REV_AT_EPOCH":6773,"BSTAR":0.00040119131,"MEAN_MOTION_DOT":0.00011259,"MEAN_MOTION_DDOT":0},{"OBJECT_NAME":"STARLINK-34877","OBJECT_ID":"2025-210J","EPOCH":"2026-03-09T21:17:44.028096","MEAN_MOTION":15.30218042,"ECCENTRICITY":6.637e-5,"INCLINATION":53.158,"RA_OF_ASC_NODE":306.0005,"ARG_OF_PERICENTER":109.961,"MEAN_ANOMALY":250.1462,"EPHEMERIS_TYPE":0,"CLASSIFICATION_TYPE":"U","NORAD_CAT_ID":65630,"ELEMENT_SET_NO":999,"REV_AT_EPOCH":2776,"BSTAR":0.0011172337,"MEAN_MOTION_DOT":0.00032895,"MEAN_MOTION_DDOT":0}]
