BANDWAGON-2 OBJECT D    
1 62380U 24247D   26068.52261193  .00011259  00000+0  40119-3 0  9994
2 62380  44.9954 115.6710 0003488 351.1453   8.9368 15.29076102 67732
STARLINK-34877          
1 65630U 25210J   26068.88731514  .00032895  00000+0  11172-2 0  9999
2 65630  53.1580 306.0005 0000664 109.9610 250.1462 15.30218042 27768
